{"type": "FeatureCollection", "features": [ {"type": "Feature", "properties": {"norad_id": 36681, "name": "FENGYUN 1C DEB", "group": "fengyun-1c-debris", "lat": 14.595398856453977, "lon": -25.628314769858328, "alt_km": 826.5590905020217, "timestamp": "2025-12-03T17:47:51.005859+00:00", "meta": {"OBJECT_NAME": "FENGYUN 1C DEB", "OBJECT_ID": "1999-025DZB", "EPOCH": "2025-11-19T06:21:10.816992", "MEAN_MOTION": 14.10187867, "ECCENTRICITY": 0.00454, "INCLINATION": 98.6964, "RA_OF_ASC_NODE": 322.6587, "ARG_OF_PERICENTER": 56.031, "MEAN_ANOMALY": 304.5163, "EPHEMERIS_TYPE": 0, "CLASSIFICATION_TYPE": "U", "NORAD_CAT_ID": 36681, "ELEMENT_SET_NO": 999, "REV_AT_EPOCH": 72427, "BSTAR": 0.00080116575, "MEAN_MOTION_DOT": 1.39e-05, "MEAN_MOTION_DDOT": 0}, "tle": {"line1": "1 36681U 99025DZB 25323.26470853  .00001390  00000+0  80117-3 0  9991", "line2": "2 36681  98.6964 322.6587 0045400  56.0310 304.5163 14.10187867724276"}}, "geometry": {"type": "Point", "coordinates": [-25.628314769858328, 14.595398856453977]}}, {"type": "Feature", "properties": {"norad_id": 36682, "name": "FENGYUN 1C DEB", "group": "fengyun-1c-debris", "lat": 80.542265144395, "lon": 126.1935530659551, "alt_km": 1145.5731758840175, "timestamp": "2025-12-03T17:47:51.005869+00:00", "meta": {"OBJECT_NAME": "FENGYUN 1C DEB", "OBJECT_ID": "1999-025DZC", "EPOCH": "2025-11-25T04:16:29.525664", "MEAN_MOTION": 13.70056399, "ECCENTRICITY": 0.02353921, "INCLINATION": 98.4824, "RA_OF_ASC_NODE": 235.0215, "ARG_OF_PERICENTER": 324.0882, "MEAN_ANOMALY": 34.464, "EPHEMERIS_TYPE": 0, "CLASSIFICATION_TYPE": "U", "NORAD_CAT_ID": 36682, "ELEMENT_SET_NO": 999, "REV_AT_EPOCH": 61152, "BSTAR": 0.0021541592, "MEAN_MOTION_DOT": 2.264e-05, "MEAN_MOTION_DDOT": 0}, "tle": {"line1": "1 36682U 99025DZC 25329.17811951  .00002264  00000+0  21542-2 0  9993", "line2": "2 36682  98.4824 235.0215 0235392 324.0882  34.4640 13.70056399611520"}}, "geometry": {"type": "Point", "coordinates": [126.1935530659551, 80.542265144395]}}, {"type": "Feature", "properties": {"norad_id": 36684, "name": "FENGYUN 1C DEB", "group": "fengyun-1c-debris", "lat": -45.542783213736925, "lon": -121.74697608280303, "alt_km": 589.1589521161195, "timestamp": "2025-12-03T17:47:51.005879+00:00", "meta": {"OBJECT_NAME": "FENGYUN 1C DEB", "OBJECT_ID": "1999-025DZE", "EPOCH": "2025-11-29T05:08:15.355104", "MEAN_MOTION": 14.94343173, "ECCENTRICITY": 0.00233669, "INCLINATION": 99.4629, "RA_OF_ASC_NODE": 62.5894, "ARG_OF_PERICENTER": 152.1689, "MEAN_ANOMALY": 208.0782, "EPHEMERIS_TYPE": 0, "CLASSIFICATION_TYPE": "U", "NORAD_CAT_ID": 36684, "ELEMENT_SET_NO": 999, "REV_AT_EPOCH": 65699, "BSTAR": 0.0047778381, "MEAN_MOTION_DOT": 0.00051944, "MEAN_MOTION_DDOT": 0}, "tle": {"line1": "1 36684U 99025DZE 25333.21406661  .00051944  00000+0  47778-2 0  9991", "line2": "2 36684  99.4629  62.5894 0023366 152.1689 208.0782 14.94343173656995"}}, "geometry": {"type": "Point", "coordinates": [-121.74697608280303, -45.542783213736925]}}, {"type": "Feature", "properties": {"norad_id": 36686, "name": "FENGYUN 1C DEB", "group": "fengyun-1c-debris", "lat": -13.304243862381572, "lon": 170.255762152479, "alt_km": 648.7184367540412, "timestamp": "2025-12-03T17:47:51.005889+00:00", "meta": {"OBJECT_NAME": "FENGYUN 1C DEB", "OBJECT_ID": "1999-025DZG", "EPOCH": "2025-12-03T06:28:38.451072", "MEAN_MOTION": 14.77013397, "ECCENTRICITY": 0.0105396, "INCLINATION": 99.0011, "RA_OF_ASC_NODE": 167.5819, "ARG_OF_PERICENTER": 82.9406, "MEAN_ANOMALY": 278.3773, "EPHEMERIS_TYPE": 0, "CLASSIFICATION_TYPE": "U", "NORAD_CAT_ID": 36686, "ELEMENT_SET_NO": 999, "REV_AT_EPOCH": 65712, "BSTAR": 0.0010973, "MEAN_MOTION_DOT": 8.421e-05, "MEAN_MOTION_DDOT": 0}, "tle": {"line1": "1 36686U 99025DZG 25337.26988948  .00008421  00000+0  10973-2 0  9994", "line2": "2 36686  99.0011 167.5819 0105396  82.9406 278.3773 14.77013397657121"}}, "geometry": {"type": "Point", "coordinates": [170.255762152479, -13.304243862381572]}}, {"type": "Feature", "properties": {"norad_id": 36687, "name": "FENGYUN 1C DEB", "group": "fengyun-1c-debris", "lat": -23.847929788555025, "lon": 68.42143500707597, "alt_km": 837.039611872643, "timestamp": "2025-12-03T17:47:51.005900+00:00", "meta": {"OBJECT_NAME": "FENGYUN 1C DEB", "OBJECT_ID": "1999-025DZH", "EPOCH": "2025-12-03T00:48:50.166144", "MEAN_MOTION": 14.04517636, "ECCENTRICITY": 0.00903358, "INCLINATION": 98.7164, "RA_OF_ASC_NODE": 63.8535, "ARG_OF_PERICENTER": 292.8526, "MEAN_ANOMALY": 66.3122, "EPHEMERIS_TYPE": 0, "CLASSIFICATION_TYPE": "U", "NORAD_CAT_ID": 36687, "ELEMENT_SET_NO": 999, "REV_AT_EPOCH": 62586, "BSTAR": 0.00040937059, "MEAN_MOTION_DOT": 6.35e-06, "MEAN_MOTION_DDOT": 0}, "tle": {"line1": "1 36687U 99025DZH 25337.03391396  .00000635  00000+0  40937-3 0  9998", "line2": "2 36687  98.7164  63.8535 0090335 292.8526  66.3122 14.04517636625865"}}, "geometry": {"type": "Point", "coordinates": [68.42143500707597, -23.847929788555025]}}, {"type": "Feature", "properties": {"norad_id": 36689, "name": "FENGYUN 1C DEB", "group": "fengyun-1c-debris", "lat": 35.71945403580836, "lon": -133.58129357700795, "alt_km": 918.8463878640832, "timestamp": "2025-12-03T17:47:51.005910+00:00", "meta": {"OBJECT_NAME": "FENGYUN 1C DEB", "OBJECT_ID": "1999-025DZK", "EPOCH": "2025-11-28T10:04:14.213280", "MEAN_MOTION": 13.74189275, "ECCENTRICITY": 0.03131537, "INCLINATION": 98.4796, "RA_OF_ASC_NODE": 227.8431, "ARG_OF_PERICENTER": 334.7216, "MEAN_ANOMALY": 23.8887, "EPHEMERIS_TYPE": 0, "CLASSIFICATION_TYPE": "U", "NORAD_CAT_ID": 36689, "ELEMENT_SET_NO": 999, "REV_AT_EPOCH": 58016, "BSTAR": 0.0027905602, "MEAN_MOTION_DOT": 3.71e-05, "MEAN_MOTION_DDOT": 0}, "tle": {"line1": "1 36689U 99025DZK 25332.41960895  .00003710  00000+0  27906-2 0  9990", "line2": "2 36689  98.4796 227.8431 0313153 334.7216  23.8887 13.74189275580169"}}, "geometry": {"type": "Point", "coordinates": [-133.58129357700795, 35.71945403580836]}}, {"type": "Feature", "properties": {"norad_id": 36691, "name": "FENGYUN 1C DEB", "group": "fengyun-1c-debris", "lat": -55.973124818718794, "lon": 145.25228618285064, "alt_km": 790.7404086291044, "timestamp": "2025-12-03T17:47:51.005920+00:00", "meta": {"OBJECT_NAME": "FENGYUN 1C DEB", "OBJECT_ID": "1999-025DZM", "EPOCH": "2025-11-30T20:23:52.583424", "MEAN_MOTION": 14.07012514, "ECCENTRICITY": 0.01293883, "INCLINATION": 98.6377, "RA_OF_ASC_NODE": 335.4994, "ARG_OF_PERICENTER": 269.1447, "MEAN_ANOMALY": 89.4896, "EPHEMERIS_TYPE": 0, "CLASSIFICATION_TYPE": "U", "NORAD_CAT_ID": 36691, "ELEMENT_SET_NO": 999, "REV_AT_EPOCH": 59442, "BSTAR": 0.0022318526, "MEAN_MOTION_DOT": 3.98e-05, "MEAN_MOTION_DDOT": 0}, "tle": {"line1": "1 36691U 99025DZM 25334.84991416  .00003980  00000+0  22319-2 0  9997", "line2": "2 36691  98.6377 335.4994 0129388 269.1447  89.4896 14.07012514594421"}}, "geometry": {"type": "Point", "coordinates": [145.25228618285064, -55.973124818718794]}}, {"type": "Feature", "properties": {"norad_id": 36692, "name": "FENGYUN 1C DEB", "group": "fengyun-1c-debris", "lat": -40.44257571255276, "lon": -108.25851782332536, "alt_km": 904.2514571283036, "timestamp": "2025-12-03T17:47:51.005930+00:00", "meta": {"OBJECT_NAME": "FENGYUN 1C DEB", "OBJECT_ID": "1999-025DZN", "EPOCH": "2025-12-02T12:41:50.115264", "MEAN_MOTION": 13.93442658, "ECCENTRICITY": 0.01157157, "INCLINATION": 99.9951, "RA_OF_ASC_NODE": 241.7875, "ARG_OF_PERICENTER": 39.9127, "MEAN_ANOMALY": 321.0467, "EPHEMERIS_TYPE": 0, "CLASSIFICATION_TYPE": "U", "NORAD_CAT_ID": 36692, "ELEMENT_SET_NO": 999, "REV_AT_EPOCH": 59663, "BSTAR": 0.0007628804, "MEAN_MOTION_DOT": 1.005e-05, "MEAN_MOTION_DDOT": 0}, "tle": {"line1": "1 36692U 99025DZN 25336.52905226  .00001005  00000+0  76288-3 0  9990", "line2": "2 36692  99.9951 241.7875 0115715  39.9127 321.0467 13.93442658596632"}}, "geometry": {"type": "Point", "coordinates": [-108.25851782332536, -40.44257571255276]}}, {"type": "Feature", "properties": {"norad_id": 36695, "name": "FENGYUN 1C DEB", "group": "fengyun-1c-debris", "lat": 11.835741022778562, "lon": -42.36277007040441, "alt_km": 896.8046722863328, "timestamp": "2025-12-03T17:47:51.005940+00:00", "meta": {"OBJECT_NAME": "FENGYUN 1C DEB", "OBJECT_ID": "1999-025DZR", "EPOCH": "2025-12-02T05:08:42.495936", "MEAN_MOTION": 14.43719766, "ECCENTRICITY": 0.0256767, "INCLINATION": 98.2188, "RA_OF_ASC_NODE": 317.8964, "ARG_OF_PERICENTER": 162.2314, "MEAN_ANOMALY": 198.8066, "EPHEMERIS_TYPE": 0, "CLASSIFICATION_TYPE": "U", "NORAD_CAT_ID": 36695, "ELEMENT_SET_NO": 999, "REV_AT_EPOCH": 89416, "BSTAR": 0.00021067, "MEAN_MOTION_DOT": 1.017e-05, "MEAN_MOTION_DDOT": 0}, "tle": {"line1": "1 36695U 99025DZR 25336.21438074  .00001017  00000+0  21067-3 0  9999", "line2": "2 36695  98.2188 317.8964 0256767 162.2314 198.8066 14.43719766894161"}}, "geometry": {"type": "Point", "coordinates": [-42.36277007040441, 11.835741022778562]}}, {"type": "Feature", "properties": {"norad_id": 36696, "name": "FENGYUN 1C DEB", "group": "fengyun-1c-debris", "lat": 50.106370371414414, "lon": -24.615891705282046, "alt_km": 747.5073659183263, "timestamp": "2025-12-03T17:47:51.005950+00:00", "meta": {"OBJECT_NAME": "FENGYUN 1C DEB", "OBJECT_ID": "1999-025DZS", "EPOCH": "2025-12-02T18:11:58.683840", "MEAN_MOTION": 14.38992658, "ECCENTRICITY": 0.00232796, "INCLINATION": 98.9924, "RA_OF_ASC_NODE": 345.2734, "ARG_OF_PERICENTER": 359.309, "MEAN_ANOMALY": 0.806, "EPHEMERIS_TYPE": 0, "CLASSIFICATION_TYPE": "U", "NORAD_CAT_ID": 36696, "ELEMENT_SET_NO": 999, "REV_AT_EPOCH": 64252, "BSTAR": 0.0025774102, "MEAN_MOTION_DOT": 7.939e-05, "MEAN_MOTION_DDOT": 0}, "tle": {"line1": "1 36696U 99025DZS 25336.75831810  .00007939  00000+0  25774-2 0  9991", "line2": "2 36696  98.9924 345.2734 0023279 359.3090   0.8060 14.38992658642521"}}, "geometry": {"type": "Point", "coordinates": [-24.615891705282046, 50.106370371414414]}}]}